{
  "links" : {
    "next" : "https://api.nasa.gov/neo/rest/v1/feed?start_date=1999-09-23&end_date=1999-09-23&detailed=true&api_key=t0TVs3DtDT2H8Oy2Zy8m2eVrNsAVKAexjcZXUckd",
    "prev" : "https://api.nasa.gov/neo/rest/v1/feed?start_date=1999-09-21&end_date=1999-09-21&detailed=true&api_key=t0TVs3DtDT2H8Oy2Zy8m2eVrNsAVKAexjcZXUckd",
    "self" : "https://api.nasa.gov/neo/rest/v1/feed?start_date=1999-09-22&end_date=1999-09-22&detailed=true&api_key=t0TVs3DtDT2H8Oy2Zy8m2eVrNsAVKAexjcZXUckd"
  },
  "element_count" : 7,
  "near_earth_objects" : {
    "1999-09-22" : [ {
      "links" : {
        "self" : "https://api.nasa.gov/neo/rest/v1/neo/2088254?api_key=t0TVs3DtDT2H8Oy2Zy8m2eVrNsAVKAexjcZXUckd"
      },
      "neo_reference_id" : "2088254",
      "name" : "88254 (2001 FM129)",
      "nasa_jpl_url" : "http://ssd.jpl.nasa.gov/sbdb.cgi?sstr=2088254",
      "absolute_magnitude_h" : 17.6,
      "estimated_diameter" : {
        "kilometers" : {
          "estimated_diameter_min" : 0.8027031673,
          "estimated_diameter_max" : 1.7948988478
        },
        "meters" : {
          "estimated_diameter_min" : 802.7031672829,
          "estimated_diameter_max" : 1794.8988477988
        },
        "miles" : {
          "estimated_diameter_min" : 0.4987764698,
          "estimated_diameter_max" : 1.115298092
        },
        "feet" : {
          "estimated_diameter_min" : 2633.5406593483,
          "estimated_diameter_max" : 5888.7759358124
        }
      },
      "is_potentially_hazardous_asteroid" : true,
      "close_approach_data" : [ {
        "close_approach_date" : "1999-09-22",
        "epoch_date_close_approach" : 937983600000,
        "relative_velocity" : {
          "kilometers_per_second" : "18.6554293988",
          "kilometers_per_hour" : "67159.54583586",
          "miles_per_hour" : "41730.3300222876"
        },
        "miss_distance" : {
          "astronomical" : "0.474948923",
          "lunar" : "184.7551269531",
          "kilometers" : "71051344",
          "miles" : "44149260"
        },
        "orbiting_body" : "Earth"
      } ],
      "orbital_data" : {
        "orbit_id" : "121",
        "orbit_determination_date" : "2017-08-16 06:21:37",
        "orbit_uncertainty" : "0",
        "minimum_orbit_intersection" : ".0100036",
        "jupiter_tisserand_invariant" : "5.142",
        "epoch_osculation" : "2458000.5",
        "eccentricity" : ".6296879623294294",
        "semi_major_axis" : "1.182134944476101",
        "inclination" : "1.521417366146007",
        "ascending_node_longitude" : "272.26806726401",
        "orbital_period" : "469.4604493092067",
        "perihelion_distance" : ".4377588000905317",
        "perihelion_argument" : "140.0316773687173",
        "aphelion_distance" : "1.92651108886167",
        "perihelion_time" : "2458035.258191389126",
        "mean_anomaly" : "333.3461063258945",
        "mean_motion" : ".7668377613699437",
        "equinox" : "J2000"
      }
    }, {
      "links" : {
        "self" : "https://api.nasa.gov/neo/rest/v1/neo/2101955?api_key=t0TVs3DtDT2H8Oy2Zy8m2eVrNsAVKAexjcZXUckd"
      },
      "neo_reference_id" : "2101955",
      "name" : "101955 Bennu (1999 RQ36)",
      "nasa_jpl_url" : "http://ssd.jpl.nasa.gov/sbdb.cgi?sstr=2101955",
      "absolute_magnitude_h" : 20.19,
      "estimated_diameter" : {
        "kilometers" : {
          "estimated_diameter_min" : 0.2435314063,
          "estimated_diameter_max" : 0.5445527791
        },
        "meters" : {
          "estimated_diameter_min" : 243.5314062744,
          "estimated_diameter_max" : 544.5527790857
        },
        "miles" : {
          "estimated_diameter_min" : 0.1513233534,
          "estimated_diameter_max" : 0.3383693049
        },
        "feet" : {
          "estimated_diameter_min" : 798.9875789614,
          "estimated_diameter_max" : 1786.5905397357
        }
      },
      "is_potentially_hazardous_asteroid" : true,
      "close_approach_data" : [ {
        "close_approach_date" : "1999-09-22",
        "epoch_date_close_approach" : 937983600000,
        "relative_velocity" : {
          "kilometers_per_second" : "6.3687550599",
          "kilometers_per_hour" : "22927.5182157205",
          "miles_per_hour" : "14246.2681935403"
        },
        "miss_distance" : {
          "astronomical" : "0.0146863907",
          "lunar" : "5.7130060196",
          "kilometers" : "2197052.75",
          "miles" : "1365185.375"
        },
        "orbiting_body" : "Earth"
      } ],
      "orbital_data" : {
        "orbit_id" : "95",
        "orbit_determination_date" : "2017-09-02 06:19:55",
        "orbit_uncertainty" : "0",
        "minimum_orbit_intersection" : ".0032228",
        "jupiter_tisserand_invariant" : "5.525",
        "epoch_osculation" : "2455562.5",
        "eccentricity" : ".2037451095574896",
        "semi_major_axis" : "1.126391026024589",
        "inclination" : "6.034939391321328",
        "ascending_node_longitude" : "2.060867570687039",
        "orbital_period" : "436.6487281874828",
        "perihelion_distance" : ".896894363022636",
        "perihelion_argument" : "66.22306847249314",
        "aphelion_distance" : "1.355887689026542",
        "perihelion_time" : "2455439.141945873525",
        "mean_anomaly" : "101.7039478618686",
        "mean_motion" : ".8244613501895456",
        "equinox" : "J2000"
      }
    }, {
      "links" : {
        "self" : "https://api.nasa.gov/neo/rest/v1/neo/2162196?api_key=t0TVs3DtDT2H8Oy2Zy8m2eVrNsAVKAexjcZXUckd"
      },
      "neo_reference_id" : "2162196",
      "name" : "162196 (1999 RL45)",
      "nasa_jpl_url" : "http://ssd.jpl.nasa.gov/sbdb.cgi?sstr=2162196",
      "absolute_magnitude_h" : 18.7,
      "estimated_diameter" : {
        "kilometers" : {
          "estimated_diameter_min" : 0.4836764882,
          "estimated_diameter_max" : 1.0815335068
        },
        "meters" : {
          "estimated_diameter_min" : 483.6764882185,
          "estimated_diameter_max" : 1081.533506775
        },
        "miles" : {
          "estimated_diameter_min" : 0.3005425432,
          "estimated_diameter_max" : 0.6720335566
        },
        "feet" : {
          "estimated_diameter_min" : 1586.8651696069,
          "estimated_diameter_max" : 3548.3383903678
        }
      },
      "is_potentially_hazardous_asteroid" : false,
      "close_approach_data" : [ {
        "close_approach_date" : "1999-09-22",
        "epoch_date_close_approach" : 937983600000,
        "relative_velocity" : {
          "kilometers_per_second" : "11.3480995492",
          "kilometers_per_hour" : "40853.1583770005",
          "miles_per_hour" : "25384.5638815312"
        },
        "miss_distance" : {
          "astronomical" : "0.4252946177",
          "lunar" : "165.4396057129",
          "kilometers" : "63623168",
          "miles" : "39533604"
        },
        "orbiting_body" : "Earth"
      } ],
      "orbital_data" : {
        "orbit_id" : "53",
        "orbit_determination_date" : "2017-04-06 09:26:34",
        "orbit_uncertainty" : "0",
        "minimum_orbit_intersection" : ".240509",
        "jupiter_tisserand_invariant" : "3.865",
        "epoch_osculation" : "2458000.5",
        "eccentricity" : ".3749709968582153",
        "semi_major_axis" : "1.826185568364147",
        "inclination" : "22.44372874183935",
        "ascending_node_longitude" : "171.9949664983829",
        "orbital_period" : "901.3963319523248",
        "perihelion_distance" : "1.141418945346556",
        "perihelion_argument" : "234.1657864198185",
        "aphelion_distance" : "2.510952191381738",
        "perihelion_time" : "2457826.930057890038",
        "mean_anomaly" : "69.32042759065851",
        "mean_motion" : ".3993803693656927",
        "equinox" : "J2000"
      }
    } ]
  }
}